      2.10          N: GNSS NAV DATA                        RINEX VERSION / TYPE
fic2rin                                 12/14/2020 00:17:00 PGM / RUN BY / DATE
                                                            END OF HEADER
 7 20 12 13  8  0  0.0-4.329006187618e-04-7.389644451905e-12 0.000000000000e+00
    8.000000000000e+01 4.128125000000e+01 4.405183493574e-09 1.842521849779e+00
    2.104789018631e-06 1.427249389235e-02 1.325830817223e-05 5.153628183365e+03
    2.880000000000e+04-3.613531589508e-07 2.587207311706e+00-1.080334186554e-07
    9.524702047672e-01 1.209062500000e+02-2.357899016507e+00-7.879256774100e-09
   -6.021679398546e-10 1.000000000000e+00 2.136000000000e+03 0.000000000000e+00
    2.400000000000e+00 0.000000000000e+00-1.117587089539e-08 8.000000000000e+01
    2.160000000000e+04 4.000000000000e+00
 8 20 12 13  8  0  0.0-2.725049853325e-06-1.364242052659e-12 0.000000000000e+00
    7.300000000000e+01-6.028125000000e+01 4.769484382455e-09-1.507192671733e+00
   -3.330409526825e-06 5.883392645046e-03-1.117587089539e-07 5.153759748459e+03
    2.880000000000e+04-2.793967723846e-08-1.627713467542e+00-5.587935447693e-08
    9.683131262656e-01 3.857500000000e+02-6.021117729436e-02-8.599286766239e-09
   -5.643092200298e-11 1.000000000000e+00 2.136000000000e+03 0.000000000000e+00
    2.400000000000e+00 0.000000000000e+00 5.122274160385e-09 7.300000000000e+01
    2.160000000000e+04 4.000000000000e+00
 6 20 12 13  8  0  0.0-3.837514668703e-06-7.958078640513e-13 0.000000000000e+00
    4.700000000000e+01-1.437812500000e+02 3.855160582913e-09 2.920071619081e+00
   -7.264316082001e-06 2.104200073518e-03 1.017563045025e-05 5.153675769806e+03
    2.880000000000e+04 6.332993507385e-08-5.633399760912e-01 3.725290298462e-08
    9.823319922648e-01 1.949062500000e+02-1.153689012852e+00-7.634246568441e-09
   -5.393081786361e-11 1.000000000000e+00 2.136000000000e+03 0.000000000000e+00
    2.400000000000e+00 0.000000000000e+00 4.190951585770e-09 4.700000000000e+01
    2.160000000000e+04 4.000000000000e+00
 4 20 12 13  8  0  0.0-1.638806425035e-04-3.410605131648e-12 0.000000000000e+00
    7.700000000000e+01-1.596875000000e+01 4.966278293997e-09-2.050043953474e+00
   -9.071081876755e-07 9.681704686955e-04 5.597248673439e-06 5.153592220306e+03
    2.880000000000e+04-1.117587089539e-08 1.563396334167e+00 4.656612873077e-08
    9.596635353468e-01 2.713750000000e+02-3.077564932224e+00-8.120695402416e-09
   -3.496574217780e-10 1.000000000000e+00 2.136000000000e+03 0.000000000000e+00
    2.400000000000e+00 0.000000000000e+00-4.190951585770e-09 8.450000000000e+02
    2.160000000000e+04 4.000000000000e+00
26 20 12 13  8  0  0.0 1.364992931485e-05 5.911715561524e-12 0.000000000000e+00
    8.000000000000e+00 1.564062500000e+02 4.805557313608e-09 2.930725172239e-01
    8.190050721169e-06 5.453304736875e-03 5.297362804413e-06 5.153728530884e+03
    2.880000000000e+04 1.750886440277e-07-2.698154136699e+00 2.980232238770e-08
    9.443670620273e-01 2.675000000000e+02 2.218441975013e-01-8.444280309598e-09
    3.557291032593e-10 1.000000000000e+00 2.136000000000e+03 0.000000000000e+00
    2.400000000000e+00 0.000000000000e+00 6.984919309616e-09 8.000000000000e+00
    2.160000000000e+04 4.000000000000e+00
17 20 12 13  8  0  0.0 3.663953393698e-04 5.002220859751e-12 0.000000000000e+00
    1.100000000000e+01-6.371875000000e+01 4.401611916233e-09-1.715116094818e+00
   -2.922490239143e-06 1.363337261137e-02 4.470348358154e-08 5.153511499405e+03
    2.880000000000e+04 1.676380634308e-07-1.552097312294e+00 3.483146429062e-07
    9.828733816729e-01 3.888437500000e+02-1.603032905784e+00-8.275701859057e-09
   -1.496490906282e-10 1.000000000000e+00 2.136000000000e+03 0.000000000000e+00
    2.400000000000e+00 0.000000000000e+00-1.117587089539e-08 1.100000000000e+01
    2.160000000000e+04 4.000000000000e+00
15 20 12 13  8  0  0.0-1.836158335209e-04 2.614797267597e-12 0.000000000000e+00
    2.600000000000e+01-1.640625000000e+01 5.739524788531e-09-2.564274515732e+00
   -8.922070264816e-07 1.309427234810e-02 4.405155777931e-06 5.153777133942e+03
    2.880000000000e+04 1.993030309677e-07 1.419104607357e+00-1.117587089539e-07
    9.280637660610e-01 2.763125000000e+02 9.581133659075e-01-8.490710815044e-09
   -9.536111503035e-11 1.000000000000e+00 2.136000000000e+03 0.000000000000e+00
    2.400000000000e+00 0.000000000000e+00-1.071020960808e-08 2.600000000000e+01
    2.160000000000e+04 4.000000000000e+00
29 20 12 13  8  0  0.0-2.550859935582e-04-7.503331289627e-12 0.000000000000e+00
    6.400000000000e+01-7.121875000000e+01 4.339823628217e-09-1.569267834876e+00
   -3.693625330925e-06 1.457738108002e-03 9.052455425262e-07 5.153712240219e+03
    2.880000000000e+04-4.656612873077e-08-1.539965815426e+00-4.097819328308e-08
    9.846418594514e-01 3.786875000000e+02 2.245688067911e+00-8.291416799362e-09
   -1.650068731986e-10 1.000000000000e+00 2.136000000000e+03 0.000000000000e+00
    2.400000000000e+00 0.000000000000e+00-1.024454832077e-08 6.400000000000e+01
    2.160000000000e+04 4.000000000000e+00
31 20 12 13  8  0  0.0-8.729379624128e-05-2.387423592154e-12 0.000000000000e+00
    5.700000000000e+01 5.453125000000e+01 4.241962409047e-09 1.433778083847e+00
    3.064051270485e-06 9.951010695659e-03 1.212954521179e-05 5.153712274551e+03
    2.880000000000e+04-5.960464477539e-08 2.603577345996e+00 9.313225746155e-08
    9.568553777815e-01 1.450000000000e+02 2.149190139539e-01-7.736393680421e-09
   -6.193115110960e-10 1.000000000000e+00 2.136000000000e+03 0.000000000000e+00
    2.400000000000e+00 0.000000000000e+00-1.303851604462e-08 5.700000000000e+01
    2.160000000000e+04 4.000000000000e+00
16 20 12 13  8  0  0.0-2.496838569641e-04-5.456968210638e-12 0.000000000000e+00
    9.000000000000e+01 1.444062500000e+02 4.196246219070e-09-6.837781857861e-01
    7.765367627144e-06 1.187239144929e-02 3.963708877563e-06 5.153622907639e+03
    2.880000000000e+04 1.844018697739e-07-2.568932678037e+00 1.061707735062e-07
    9.761149576203e-01 3.097187500000e+02 6.321285273533e-01-8.309631843806e-09
    4.100170788571e-10 1.000000000000e+00 2.136000000000e+03 0.000000000000e+00
    2.400000000000e+00 0.000000000000e+00-1.071020960808e-08 9.000000000000e+01
    2.160000000000e+04 4.000000000000e+00
 9 20 12 13  8  0  0.0-3.008157946169e-04-4.433786671143e-12 0.000000000000e+00
    7.600000000000e+01-1.465625000000e+01 5.244147011201e-09-1.158448347646e+00
   -8.065253496170e-07 2.034743200056e-03 5.213543772697e-06 5.153588542938e+03
    2.880000000000e+04 1.303851604462e-08 1.513866738078e+00 3.166496753693e-08
    9.524555170696e-01 2.743750000000e+02 1.773482805980e+00-8.317846471693e-09
   -2.832260832175e-10 1.000000000000e+00 2.136000000000e+03 0.000000000000e+00
    2.400000000000e+00 0.000000000000e+00 1.396983861923e-09 7.600000000000e+01
    2.160000000000e+04 4.000000000000e+00
10 20 12 13  8  0  0.0-1.485506072640e-05-8.867573342286e-12 0.000000000000e+00
    8.800000000000e+01 1.993750000000e+01 4.568047420368e-09 5.023217990563e-01
    1.110136508942e-06 6.270976969972e-03 8.910894393921e-06 5.153664960861e+03
    2.880000000000e+04 7.450580596924e-09 4.803951293797e-01 9.499490261078e-08
    9.676454519171e-01 2.095312500000e+02-2.643308714704e+00-8.010333662550e-09
    5.596661694853e-10 1.000000000000e+00 2.136000000000e+03 0.000000000000e+00
    2.400000000000e+00 0.000000000000e+00 2.328306436539e-09 8.800000000000e+01
    2.160000000000e+04 4.000000000000e+00
12 20 12 13  8  0  0.0 2.759927883744e-05-5.229594535194e-12 0.000000000000e+00
    8.600000000000e+01 1.380312500000e+02 4.122314568091e-09 1.172615579871e+00
    7.126480340958e-06 8.085816283710e-03 5.226582288742e-06 5.153597238541e+03
    2.880000000000e+04-1.695007085800e-07-2.587747344990e+00 5.587935447693e-08
    9.759778865850e-01 2.850000000000e+02 1.165498180592e+00-8.196055684332e-09
    3.367997433469e-10 1.000000000000e+00 2.136000000000e+03 0.000000000000e+00
    2.400000000000e+00 0.000000000000e+00-1.257285475731e-08 8.600000000000e+01
    2.160000000000e+04 4.000000000000e+00
27 20 12 13  8  0  0.0-3.382051363587e-05-8.071765478235e-12 0.000000000000e+00
    7.000000000000e+01-7.003125000000e+01 4.518759653049e-09-1.589396196411e+00
   -3.671273589134e-06 8.662271313369e-03 1.396983861923e-07 5.153673505783e+03
    2.880000000000e+04 7.264316082001e-08-1.611803891107e+00-7.264316082001e-08
    9.768186694927e-01 3.821250000000e+02 5.659531018069e-01-8.423565161015e-09
   -6.643133856047e-11 1.000000000000e+00 2.136000000000e+03 0.000000000000e+00
    2.400000000000e+00 0.000000000000e+00 1.862645149231e-09 7.000000000000e+01
    2.160000000000e+04 4.000000000000e+00
14 20 12 13  8  0  0.0 6.231619045138e-05 1.068656274583e-11 0.000000000000e+00
    9.900000000000e+01 1.606562500000e+02 4.508402078757e-09 2.559734519172e+00
    8.257105946541e-06 1.747155329213e-04 5.597248673439e-06 5.153744426727e+03
    2.880000000000e+04-1.862645149231e-08-2.612292961333e+00-4.470348358154e-08
    9.595273142669e-01 2.708437500000e+02 1.674973204329e+00-8.268558704374e-09
    3.993023468312e-10 1.000000000000e+00 2.136000000000e+03 0.000000000000e+00
    3.400000000000e+00 0.000000000000e+00-2.328306436539e-09 3.550000000000e+02
    2.160000000000e+04 4.000000000000e+00
32 20 12 13  8  0  0.0 7.721129804850e-06 2.614797267597e-12 0.000000000000e+00
    4.100000000000e+01-2.078125000000e+01 5.107355599004e-09-8.518736509969e-01
   -1.164153218269e-06 4.303960129619e-03 5.453824996948e-06 5.153600879669e+03
    2.880000000000e+04 1.080334186554e-07 1.523174280791e+00 1.043081283569e-07
    9.564973563770e-01 2.740625000000e+02-2.467564054622e+00-8.272130281715e-09
   -4.103742365913e-10 1.000000000000e+00 2.136000000000e+03 0.000000000000e+00
    2.400000000000e+00 0.000000000000e+00 4.656612873077e-10 4.100000000000e+01
    2.160000000000e+04 4.000000000000e+00
